start=new Date('2022-02-20T00:00:00.000Z').valueOf();
sats=[{"MEAN_MOTION":"15.06396760","TLE_LINE1":"1 45093U 20006BB  22050.71627416 -.00000120  00000-0  10837-4 0  9999","BSTAR":"0.00001083700000","INCLINATION":"53.0546","PERIAPSIS":"546.077","OBJECT_ID":"2020-006BB","MEAN_ANOMALY":"297.1618","OBJECT_NAME":"STARLINK-1142","COUNTRY_CODE":"US","RA_OF_ASC_NODE":"45.9892","LAUNCH_DATE":"2020-01-29","TIME_SYSTEM":"UTC","EPHEMERIS_TYPE":"0","ELEMENT_SET_NO":"999","ARG_OF_PERICENTER":"62.9539","EPOCH":"2022-02-19T17:11:26.087424","MEAN_MOTION_DOT":"-0.00000120","CENTER_NAME":"EARTH","APOAPSIS":"548.370","SITE":"AFETR","REF_FRAME":"TEME","CLASSIFICATION_TYPE":"U","MEAN_MOTION_DDOT":"0.0000000000000","OBJECT_TYPE":"PAYLOAD","DECAY_DATE":null,"ECCENTRICITY":"0.00016550","REV_AT_EPOCH":"11410","SEMIMAJOR_AXIS":"6925.358","MEAN_ELEMENT_THEORY":"SGP4","NORAD_CAT_ID":"45093","GP_ID":"196425553","PERIOD":"95.592","FILE":"3308986","RCS_SIZE":"LARGE","TLE_LINE2":"2 45093  53.0546  45.9892 0001655  62.9539 297.1618 15.06396760114108"},{"PERIOD":"95.592","GP_ID":"196389493","MEAN_ELEMENT_THEORY":"SGP4","NORAD_CAT_ID":"45094","TLE_LINE2":"2 45094  53.0559  47.1142 0001588  74.1683 285.9481 15.06406950114077","RCS_SIZE":"LARGE","FILE":"3308480","OBJECT_TYPE":"PAYLOAD","MEAN_MOTION_DDOT":"0.0000000000000","REF_FRAME":"TEME","CLASSIFICATION_TYPE":"U","SITE":"AFETR","SEMIMAJOR_AXIS":"6925.327","REV_AT_EPOCH":"11407","ECCENTRICITY":"0.00015880","DECAY_DATE":null,"MEAN_MOTION_DOT":"0.00001567","EPOCH":"2022-02-19T11:10:30.355968","ARG_OF_PERICENTER":"74.1683","ELEMENT_SET_NO":"999","APOAPSIS":"548.292","CENTER_NAME":"EARTH","OBJECT_NAME":"STARLINK-1146","MEAN_ANOMALY":"285.9481","OBJECT_ID":"2020-006BC","PERIAPSIS":"546.093","INCLINATION":"53.0559","BSTAR":"0.00012405000000","MEAN_MOTION":"15.06406950","TLE_LINE1":"1 45094U 20006BC  22050.46562912  .00001567  00000-0  12405-3 0  9998","EPHEMERIS_TYPE":"0","TIME_SYSTEM":"UTC","LAUNCH_DATE":"2020-01-29","RA_OF_ASC_NODE":"47.1142","COUNTRY_CODE":"US"},{"MEAN_ANOMALY":"301.6164","OBJECT_ID":"2020-006BD","OBJECT_NAME":"STARLINK-1147","BSTAR":"-0.00004144200000","INCLINATION":"53.0553","PERIAPSIS":"546.089","TLE_LINE1":"1 45095U 20006BD  22050.40296528 -.00000899  00000-0 -41442-4 0  9993","MEAN_MOTION":"15.06409485","EPHEMERIS_TYPE":"0","TIME_SYSTEM":"UTC","LAUNCH_DATE":"2020-01-29","COUNTRY_CODE":"US","RA_OF_ASC_NODE":"47.4065","EPOCH":"2022-02-19T09:40:16.200192","MEAN_MOTION_DOT":"-0.00000899","ELEMENT_SET_NO":"999","ARG_OF_PERICENTER":"58.4979","APOAPSIS":"548.280","CENTER_NAME":"EARTH","OBJECT_TYPE":"PAYLOAD","MEAN_MOTION_DDOT":"0.0000000000000","REF_FRAME":"TEME","CLASSIFICATION_TYPE":"U","SITE":"AFETR","SEMIMAJOR_AXIS":"6925.319","REV_AT_EPOCH":"11406","DECAY_DATE":null,"ECCENTRICITY":"0.00015820","PERIOD":"95.592","GP_ID":"196389242","NORAD_CAT_ID":"45095","MEAN_ELEMENT_THEORY":"SGP4","TLE_LINE2":"2 45095  53.0553  47.4065 0001582  58.4979 301.6164 15.06409485114065","RCS_SIZE":"LARGE","FILE":"3308480"},{"PERIAPSIS":"546.033","INCLINATION":"53.0552","BSTAR":"0.00012011000000","MEAN_MOTION":"15.06408602","TLE_LINE1":"1 45096U 20006BE  22050.39558821  .00001508  00000-0  12011-3 0  9994","OBJECT_NAME":"STARLINK-1152","MEAN_ANOMALY":"297.4475","OBJECT_ID":"2020-006BE","RA_OF_ASC_NODE":"47.4419","COUNTRY_CODE":"US","EPHEMERIS_TYPE":"0","LAUNCH_DATE":"2020-01-29","TIME_SYSTEM":"UTC","ELEMENT_SET_NO":"999","ARG_OF_PERICENTER":"62.6683","MEAN_MOTION_DOT":"0.00001508","EPOCH":"2022-02-19T09:29:38.821344","APOAPSIS":"548.342","CENTER_NAME":"EARTH","CLASSIFICATION_TYPE":"U","REF_FRAME":"TEME","SITE":"AFETR","OBJECT_TYPE":"PAYLOAD","MEAN_MOTION_DDOT":"0.0000000000000","ECCENTRICITY":"0.00016670","DECAY_DATE":null,"SEMIMAJOR_AXIS":"6925.322","REV_AT_EPOCH":"11405","NORAD_CAT_ID":"45096","MEAN_ELEMENT_THEORY":"SGP4","PERIOD":"95.592","GP_ID":"196387990","RCS_SIZE":"LARGE","FILE":"3308480","TLE_LINE2":"2 45096  53.0552  47.4419 0001667  62.6683 297.4475 15.06408602114057"},{"EPOCH":"2022-02-19T17:00:49.527648","MEAN_MOTION_DOT":"0.00001710","ARG_OF_PERICENTER":"74.8801","ELEMENT_SET_NO":"999","CENTER_NAME":"EARTH","APOAPSIS":"548.369","MEAN_ANOMALY":"285.2375","OBJECT_ID":"2020-006BG","OBJECT_NAME":"STARLINK-1184","MEAN_MOTION":"15.06403749","TLE_LINE1":"1 45098U 20006BG  22050.70890657  .00001710  00000-0  13368-3 0  9998","BSTAR":"0.00013368000000","INCLINATION":"53.0552","PERIAPSIS":"546.035","LAUNCH_DATE":"2020-01-29","TIME_SYSTEM":"UTC","EPHEMERIS_TYPE":"0","COUNTRY_CODE":"US","RA_OF_ASC_NODE":"46.0326","GP_ID":"196425053","PERIOD":"95.592","NORAD_CAT_ID":"45098","MEAN_ELEMENT_THEORY":"SGP4","TLE_LINE2":"2 45098  53.0552  46.0326 0001685  74.8801 285.2375 15.06403749114105","FILE":"3308986","RCS_SIZE":"LARGE","MEAN_MOTION_DDOT":"0.0000000000000","OBJECT_TYPE":"PAYLOAD","SITE":"AFETR","REF_FRAME":"TEME","CLASSIFICATION_TYPE":"U","REV_AT_EPOCH":"11410","SEMIMAJOR_AXIS":"6925.337","DECAY_DATE":null,"ECCENTRICITY":"0.00016850"},{"ELEMENT_SET_NO":"999","ARG_OF_PERICENTER":"53.7635","EPOCH":"2022-02-19T16:13:02.853408","MEAN_MOTION_DOT":"-0.00001625","CENTER_NAME":"EARTH","APOAPSIS":"548.486","TLE_LINE1":"1 45099U 20006BH  22050.67572747 -.00001625  00000-0 -90233-4 0  9996","MEAN_MOTION":"15.06397985","INCLINATION":"53.0561","BSTAR":"-0.00009023300000","PERIAPSIS":"545.954","OBJECT_ID":"2020-006BH","MEAN_ANOMALY":"306.3523","OBJECT_NAME":"STARLINK-1186","COUNTRY_CODE":"US","RA_OF_ASC_NODE":"46.1714","LAUNCH_DATE":"2020-01-29","TIME_SYSTEM":"UTC","EPHEMERIS_TYPE":"0","NORAD_CAT_ID":"45099","MEAN_ELEMENT_THEORY":"SGP4","GP_ID":"196425301","PERIOD":"95.592","FILE":"3308986","RCS_SIZE":"LARGE","TLE_LINE2":"2 45099  53.0561  46.1714 0001828  53.7635 306.3523 15.06397985114102","SITE":"AFETR","REF_FRAME":"TEME","CLASSIFICATION_TYPE":"U","MEAN_MOTION_DDOT":"0.0000000000000","OBJECT_TYPE":"PAYLOAD","DECAY_DATE":null,"ECCENTRICITY":"0.00018280","REV_AT_EPOCH":"11410","SEMIMAJOR_AXIS":"6925.355"},{"ECCENTRICITY":"0.00014520","DECAY_DATE":null,"REV_AT_EPOCH":"11410","SEMIMAJOR_AXIS":"6925.322","SITE":"AFETR","REF_FRAME":"TEME","CLASSIFICATION_TYPE":"U","MEAN_MOTION_DDOT":"0.0000000000000","OBJECT_TYPE":"PAYLOAD","FILE":"3308986","RCS_SIZE":"LARGE","TLE_LINE2":"2 45100  53.0554  46.0268 0001452  61.4605 298.6530 15.06408530114106","NORAD_CAT_ID":"45100","MEAN_ELEMENT_THEORY":"SGP4","GP_ID":"196426549","PERIOD":"95.592","RA_OF_ASC_NODE":"46.0268","COUNTRY_CODE":"US","LAUNCH_DATE":"2020-01-29","TIME_SYSTEM":"UTC","EPHEMERIS_TYPE":"0","TLE_LINE1":"1 45100U 20006BJ  22050.70521896 -.00001796  00000-0 -10165-3 0  9996","MEAN_MOTION":"15.06408530","PERIAPSIS":"546.182","INCLINATION":"53.0554","BSTAR":"-0.00010165000000","OBJECT_NAME":"STARLINK-1193","MEAN_ANOMALY":"298.6530","OBJECT_ID":"2020-006BJ","CENTER_NAME":"EARTH","APOAPSIS":"548.193","ARG_OF_PERICENTER":"61.4605","ELEMENT_SET_NO":"999","MEAN_MOTION_DOT":"-0.00001796","EPOCH":"2022-02-19T16:55:30.918144"},{"GP_ID":"196426803","PERIOD":"95.591","NORAD_CAT_ID":"45101","MEAN_ELEMENT_THEORY":"SGP4","TLE_LINE2":"2 45101  53.0541  46.0414 0001568  64.8945 295.2206 15.06412069114103","FILE":"3308986","RCS_SIZE":"LARGE","MEAN_MOTION_DDOT":"0.0000000000000","OBJECT_TYPE":"PAYLOAD","SITE":"AFETR","REF_FRAME":"TEME","CLASSIFICATION_TYPE":"U","REV_AT_EPOCH":"11410","SEMIMAJOR_AXIS":"6925.312","DECAY_DATE":null,"ECCENTRICITY":"0.00015680","EPOCH":"2022-02-19T16:50:11.473152","MEAN_MOTION_DOT":"0.00003369","ARG_OF_PERICENTER":"64.8945","ELEMENT_SET_NO":"999","CENTER_NAME":"EARTH","APOAPSIS":"548.262","OBJECT_ID":"2020-006BK","MEAN_ANOMALY":"295.2206","OBJECT_NAME":"STARLINK-1194","MEAN_MOTION":"15.06412069","TLE_LINE1":"1 45101U 20006BK  22050.70152168  .00003369  00000-0  24491-3 0  9992","INCLINATION":"53.0541","BSTAR":"0.00024491000000","PERIAPSIS":"546.091","TIME_SYSTEM":"UTC","LAUNCH_DATE":"2020-01-29","EPHEMERIS_TYPE":"0","COUNTRY_CODE":"US","RA_OF_ASC_NODE":"46.0414"},{"TLE_LINE2":"2 45102  53.0560  47.4590 0001445  60.1327 299.9805 15.06401261114054","FILE":"3308480","RCS_SIZE":"LARGE","GP_ID":"196388742","PERIOD":"95.592","NORAD_CAT_ID":"45102","MEAN_ELEMENT_THEORY":"SGP4","REV_AT_EPOCH":"11405","SEMIMAJOR_AXIS":"6925.345","DECAY_DATE":null,"ECCENTRICITY":"0.00014450","MEAN_MOTION_DDOT":"0.0000000000000","OBJECT_TYPE":"PAYLOAD","SITE":"AFETR","REF_FRAME":"TEME","CLASSIFICATION_TYPE":"U","CENTER_NAME":"EARTH","APOAPSIS":"548.210","EPOCH":"2022-02-19T09:24:20.268000","MEAN_MOTION_DOT":"0.00000102","ARG_OF_PERICENTER":"60.1327","ELEMENT_SET_NO":"999","TIME_SYSTEM":"UTC","LAUNCH_DATE":"2020-01-29","EPHEMERIS_TYPE":"0","COUNTRY_CODE":"US","RA_OF_ASC_NODE":"47.4590","OBJECT_ID":"2020-006BL","MEAN_ANOMALY":"299.9805","OBJECT_NAME":"STARLINK-1195","MEAN_MOTION":"15.06401261","TLE_LINE1":"1 45102U 20006BL  22050.39190125  .00000102  00000-0  25720-4 0  9992","INCLINATION":"53.0560","BSTAR":"0.00002572000000","PERIAPSIS":"546.209"},{"COUNTRY_CODE":"US","RA_OF_ASC_NODE":"45.5842","EPHEMERIS_TYPE":"0","TIME_SYSTEM":"UTC","LAUNCH_DATE":"2020-01-29","INCLINATION":"53.0528","BSTAR":"-0.00010811000000","PERIAPSIS":"546.134","MEAN_MOTION":"15.06390122","TLE_LINE1":"1 45103U 20006BM  22050.82222878 -.00001891  00000-0 -10811-3 0  9994","MEAN_ANOMALY":"297.5487","OBJECT_ID":"2020-006BM","OBJECT_NAME":"STARLINK-1196","APOAPSIS":"548.353","CENTER_NAME":"EARTH","ARG_OF_PERICENTER":"62.5665","ELEMENT_SET_NO":"999","EPOCH":"2022-02-19T19:44:00.566592","MEAN_MOTION_DOT":"-0.00001891","DECAY_DATE":null,"ECCENTRICITY":"0.00016020","SEMIMAJOR_AXIS":"6925.379","REV_AT_EPOCH":"11412","CLASSIFICATION_TYPE":"U","REF_FRAME":"TEME","SITE":"AFETR","OBJECT_TYPE":"PAYLOAD","MEAN_MOTION_DDOT":"0.0000000000000","RCS_SIZE":"LARGE","FILE":"3308986","TLE_LINE2":"2 45103  53.0528  45.5842 0001602  62.5665 297.5487 15.06390122114125","NORAD_CAT_ID":"45103","MEAN_ELEMENT_THEORY":"SGP4","PERIOD":"95.593","GP_ID":"196425802"}];
